NORAD_CAT_ID,OBJECT_NAME,OBJECT_TYPE,EPOCH,MEAN_MOTION,ECCENTRICITY,INCLINATION,RA_OF_ASC_NODE,ARG_OF_PERICENTER,MEAN_ANOMALY,BSTAR,MEAN_MOTION_DOT,MEAN_MOTION_DDOT,TLE_LINE0,TLE_LINE1,TLE_LINE2,SEMIMAJOR_AXIS,PERIOD,APOGEE,PERIGEE,DECAYED
54182.0,STARLINK-5231,PAYLOAD,2023-01-15 23:28:10,15.67808907,0.0004088,53.2136,109.2612,25.3863,334.7355,0.00087781,0.00098982,0.0,0 STARLINK-5231,1 54182U 22141AB  23015.97789709  .00098982  00000-0  87781-3 0  9997,2 54182  53.2136 109.2612 0004088  25.3863 334.7355 15.67808907 12835,6743.309,91.848,367.931,362.418,0.0
54182.0,STARLINK-5231,PAYLOAD,2023-01-16 11:42:30,15.67907057,0.0004153,53.2139,106.7574,26.6013,333.5217,0.00082258,0.00093025,0.0,0 STARLINK-5231,1 54182U 22141AB  23016.48785430  .00093025  00000-0  82258-3 0  9998,2 54182  53.2139 106.7574 0004153  26.6013 333.5217 15.67907057 12684,6743.028,91.842,367.693,362.093,0.0
54182.0,STARLINK-5231,PAYLOAD,2023-01-17 12:11:04,15.68053672,0.0004331999999999,53.214,101.7494,28.5952,331.5303,0.00064172,0.00072705,0.0,0 STARLINK-5231,1 54182U 22141AB  23017.50769118  .00072705  00000-0  64172-3 0  9994,2 54182  53.2140 101.7494 0004332  28.5952 331.5303 15.68053672 13078,6742.608,91.834,367.394,361.552,0.0
54182.0,STARLINK-5231,PAYLOAD,2023-01-18 09:35:57,15.68191185,0.0004527,53.2139,97.3669,31.0702,329.0583,0.0007575,0.00086562,0.0,0 STARLINK-5231,1 54182U 22141AB  23018.39996892  .00086562  00000-0  75750-3 0  9993,2 54182  53.2139  97.3669 0004527  31.0702 329.0583 15.68191185 12981,6742.214,91.826,367.131,361.026,0.0
54182.0,STARLINK-5231,PAYLOAD,2023-01-18 21:50:07,15.68270342,0.0004607,53.2139,94.8626,32.2162,327.9137,0.00072076,0.00082566,0.0,0 STARLINK-5231,1 54182U 22141AB  23018.90980549  .00082566  00000-0  72076-3 0  9990,2 54182  53.2139  94.8626 0004607  32.2162 327.9137 15.68270342 13063,6741.986999999999,91.821,366.958,360.746,0.0
54182.0,STARLINK-5231,PAYLOAD,2023-01-19 11:36:00,15.68356472,0.0004673999999999,53.2139,92.0452,33.9505,326.1811,0.00063499,0.00072845,0.0,0 STARLINK-5231,1 54182U 22141AB  23019.48334074  .00072845  00000-0  63499-3 0  9998,2 54182  53.2139  92.0452 0004674  33.9505 326.1811 15.68356472 13387,6741.74,91.816,366.756,360.454,0.0
54182.0,STARLINK-5231,PAYLOAD,2023-01-20 10:32:24,15.68391673,0.0005495,53.2147,87.3479,32.9251,327.2108,0.00050013,0.00057236,0.0,0 STARLINK-5231,1 54182U 22141AB  23020.43917382  .00057236  00000-0  50013-3 0  9999,2 54182  53.2147  87.3479 0005495  32.9251 327.2108 15.68391673 13531,6741.639,91.814,367.208,359.79900000000004,0.0
54182.0,STARLINK-5231,PAYLOAD,2023-01-21 11:00:31,15.68543648,0.0005091,53.214,82.3385,38.7748,321.3635,0.00068481,0.00079284,0.0,0 STARLINK-5231,1 54182U 22141AB  23021.45869356  .00079284  00000-0  68481-3 0  9994,2 54182  53.2140  82.3385 0005091  38.7748 321.3635 15.68543648 13690,6741.203,91.805,366.5,359.63699999999994,0.0
54182.0,STARLINK-5231,PAYLOAD,2023-01-22 13:00:13,15.68720435,0.0005275,53.2139,77.0141,42.1826,317.9597,0.000654,0.0007622,0.0,0 STARLINK-5231,1 54182U 22141AB  23022.54181781  .00076220  00000-0  65400-3 0  9999,2 54182  53.2139  77.0141 0005275  42.1826 317.9597 15.68720435 13867,6740.696999999999,91.795,366.11800000000005,359.006,0.0
54182.0,STARLINK-5231,PAYLOAD,2023-01-24 03:13:36,15.68888854,0.0005627,53.2131,69.1827,54.5924,305.5619,0.00067623,0.0007942,0.0,0 STARLINK-5231,1 54182U 22141AB  23024.13444464  .00079420  00000-0  67623-3 0  9990,2 54182  53.2131  69.1827 0005627  54.5924 305.5619 15.68888854 14116,6740.215,91.785,365.872,358.287,0.0
54182.0,STARLINK-5231,PAYLOAD,2023-01-24 09:20:33,15.6877154,0.000565,53.2133,67.9293,45.6237,314.5243,0.00015647,0.00017701,0.0,0 STARLINK-5231,1 54182U 22141AB  23024.38927906  .00017701  00000-0  15647-3 0  9997,2 54182  53.2133  67.9293 0005650  45.6237 314.5243 15.68771540 14155,6740.551,91.792,366.224,358.607,0.0
54182.0,STARLINK-5231,PAYLOAD,2023-01-24 23:06:12,15.68802899,0.0005667999999999,53.2134,65.1113,48.5996,311.5508,0.00062688,0.00073267,0.0,0 STARLINK-5231,1 54182U 22141AB  23024.96264706  .00073267  00000-0  62688-3 0  9999,2 54182  53.2134  65.1113 0005668  48.5996 311.5508 15.68802899 14243,6740.460999999999,91.79,366.146,358.505,0.0
54182.0,STARLINK-5231,PAYLOAD,2023-01-25 09:48:21,15.68866133,0.0005658,53.2132,62.9181,50.6163,309.5355,0.00055667,0.00065101,0.0,0 STARLINK-5231,1 54182U 22141AB  23025.40858099  .00065101  00000-0  55667-3 0  9990,2 54182  53.2132  62.9181 0005658  50.6163 309.5355 15.68866133 14080,6740.28,91.786,365.958,358.331,0.0
54182.0,STARLINK-5231,PAYLOAD,2023-01-25 18:58:44,15.68919068,0.0005752,53.2132,61.039,51.3614,308.7918,0.00062526,0.00073431,0.0,0 STARLINK-5231,1 54182U 22141AB  23025.79079680  .00073431  00000-0  62526-3 0  9990,2 54182  53.2132  61.0390 0005752  51.3614 308.7918 15.68919068 14145,6740.128000000001,91.783,365.87,358.116,0.0
54182.0,STARLINK-5231,PAYLOAD,2023-01-26 02:37:23,15.68965421,0.0005836,53.2131,59.4729,51.1203,309.0335,0.00064805,0.00076304,0.0,0 STARLINK-5231,1 54182U 22141AB  23026.10930011  .00076304  00000-0  64805-3 0  9994,2 54182  53.2131  59.4729 0005836  51.1203 309.0335 15.68965421 14428,6739.995,91.78,365.794,357.927,0.0
54182.0,STARLINK-5231,PAYLOAD,2023-01-26 08:44:17,15.69000397,0.0005792,53.2133,58.2191,52.5605,307.5939,0.00059686,0.0007028,0.0,0 STARLINK-5231,1 54182U 22141AB  23026.36409553  .00070280  00000-0  59686-3 0  9992,2 54182  53.2133  58.2191 0005792  52.5605 307.5939 15.69000397 14237,6739.895,91.778,365.664,357.856,0.0
54182.0,STARLINK-5231,PAYLOAD,2023-01-27 01:33:14,15.69099984,0.0005946,53.2134,54.7738,53.7879,306.3688,0.00060509,0.00071566,0.0,0 STARLINK-5231,1 54182U 22141AB  23027.06475444  .00071566  00000-0  60509-3 0  9996,2 54182  53.2134  54.7738 0005946  53.7879 306.3688 15.69099984 14578,6739.61,91.772,365.482,357.468,0.0
54182.0,STARLINK-5231,PAYLOAD,2023-01-27 07:40:07,15.69131277,0.0005915,53.2135,53.5199,55.105,305.0523,0.00051005,0.00060228,0.0,0 STARLINK-5231,1 54182U 22141AB  23027.31952846  .00060228  00000-0  51005-3 0  9994,2 54182  53.2135  53.5199 0005915  55.1050 305.0523 15.69131277 14385,6739.52,91.771,365.372,357.399,0.0
54182.0,STARLINK-5231,PAYLOAD,2023-01-28 08:07:32,15.69261968,0.0005949,53.2136,48.5068,58.4628,301.697,0.00055271,0.00065714,0.0,0 STARLINK-5231,1 54182U 22141AB  23028.33857328  .00065714  00000-0  55271-3 0  9990,2 54182  53.2136  48.5068 0005949  58.4628 301.6970 15.69261968 14771,6739.146,91.763,365.02,357.002,0.0
54182.0,STARLINK-5231,PAYLOAD,2023-01-29 07:03:08,15.69378513,0.0006047,53.2138,43.8064,61.4234,298.7392,0.0004758,0.00056703,0.0,0 STARLINK-5231,1 54182U 22141AB  23029.29385194  .00056703  00000-0  47580-3 0  9995,2 54182  53.2138  43.8064 0006047  61.4234 298.7392 15.69378513 14920,6738.813,91.756,364.752,356.603,0.0
54182.0,STARLINK-5231,PAYLOAD,2023-01-30 07:30:20,15.69491759,0.0006126,53.2139,38.7925,65.416,294.7497,0.00045239,0.00054123,0.0,0 STARLINK-5231,1 54182U 22141AB  23030.31274177  .00054123  00000-0  45239-3 0  9991,2 54182  53.2139  38.7925 0006126  65.4160 294.7497 15.69491759 15088,6738.488,91.749,364.481,356.225,0.0
54182.0,STARLINK-5231,PAYLOAD,2023-01-31 09:29:07,15.69619779,0.0006241,53.2137,33.4636,68.1456,292.0226,0.0004841,0.000583,0.0,0 STARLINK-5231,1 54182U 22141AB  23031.39522927  .00058300  00000-0  48410-3 0  9994,2 54182  53.2137  33.4636 0006241  68.1456 292.0226 15.69619779 15257,6738.122,91.742,364.192,355.782,0.0
54182.0,STARLINK-5231,PAYLOAD,2023-02-01 05:21:02,15.69727589,0.0006269,53.2134,29.3889,70.801,289.3687,0.00050059,0.00060596,0.0,0 STARLINK-5231,1 54182U 22141AB  23032.22295056  .00060596  00000-0  50059-3 0  9999,2 54182  53.2134  29.3889 0006269  70.8010 289.3687 15.69727589 15387,6737.813,91.736,363.902,355.454,0.0
54182.0,STARLINK-5231,PAYLOAD,2023-02-02 08:51:16,15.69875827,0.000633,53.2134,23.7462,73.9266,286.245,0.0005879,0.00071809,0.0,0 STARLINK-5231,1 54182U 22141AB  23033.36893617  .00071809  00000-0  58790-3 0  9991,2 54182  53.2134  23.7462 0006330  73.9266 286.2450 15.69875827 15336,6737.389,91.727,363.519,354.989,0.0
54182.0,STARLINK-5231,PAYLOAD,2023-02-03 03:11:19,15.69969348,0.0006385,53.2131,19.9842,76.2725,283.9004,0.00044961,0.00054881,0.0,0 STARLINK-5231,1 54182U 22141AB  23034.13286582  .00054881  00000-0  44961-3 0  9990,2 54182  53.2131  19.9842 0006385  76.2725 283.9004 15.69969348 15687,6737.122,91.722,363.288,354.685,0.0
54182.0,STARLINK-5231,PAYLOAD,2023-02-03 06:14:39,15.6998799,0.0006371,53.2132,19.3569,77.1295,283.0435,0.00051133,0.00062603,0.0,0 STARLINK-5231,1 54182U 22141AB  23034.26018255  .00062603  00000-0  51133-3 0  9994,2 54182  53.2132  19.3569 0006371  77.1295 283.0435 15.69987990 15474,6737.068,91.72,363.226,354.641,0.0
54182.0,STARLINK-5231,PAYLOAD,2023-02-04 03:37:59,15.69979059,0.0006566,53.2135,14.9675,71.0598,289.1132,0.00055171,0.00067614,0.0,0 STARLINK-5231,1 54182U 22141AB  23035.15138022  .00067614  00000-0  55171-3 0  9991,2 54182  53.2135  14.9675 0006566  71.0598 289.1132 15.69979059 15840,6737.094,91.721,363.382,354.535,0.0
54182.0,STARLINK-5231,PAYLOAD,2023-02-04 05:09:39,15.70009817,0.0006349,53.2136,14.6539,83.7987,276.3755,0.00032206,0.00039133,0.0,0 STARLINK-5231,1 54182U 22141AB  23035.21503715  .00039133  00000-0  32206-3 0  9992,2 54182  53.2136  14.6539 0006349  83.7987 276.3755 15.70009817 15621,6737.006,91.719,363.148,354.594,0.0
54182.0,STARLINK-5231,PAYLOAD,2023-02-05 02:33:02,15.69991363,0.0006641,53.2138,10.265,84.1202,276.0574,0.00047425,0.00058001,0.0,0 STARLINK-5231,1 54182U 22141AB  23036.10628027  .00058001  00000-0  47425-3 0  9999,2 54182  53.2138  10.2650 0006641  84.1202 276.0574 15.69991363 15999,6737.059,91.72,363.398,354.45,0.0
54182.0,STARLINK-5231,PAYLOAD,2023-02-05 05:36:22,15.6993619,0.0006015,53.2144,9.6384,91.5202,268.6506,0.00049434,0.00060349,0.0,0 STARLINK-5231,1 54182U 22141AB  23036.23359852  .00060349  00000-0  49434-3 0  9990,2 54182  53.2144   9.6384 0006015  91.5202 268.6506 15.69936190 16012,6737.217,91.723,363.134,355.029,0.0
